{
    "satellites": [
        {
            "name": "starlink310",
            "title": "Starlink-310 (G10-17)",
            "tle": [
                "1 70533C 25235AD  25301.04979167 -.01522500  00000+0 -44945-2 0  3010",
                "2 70533  53.1502 147.5873 0000714  81.6287  35.1898 15.93417395    17"
            ],
            "stdMag": 5,
            "noradId": "70533",
            "tleUrl": "http://celestrak.org/NORAD/elements/supplemental/sup-gp.php?FILE=starlink&FORMAT=tle",
            "launchDate": "2025-10-19T17:39:40.000Z",
            "active": true,
            "batch": [
                {
                    "noradId": "70533",
                    "tle": [
                        "1 70533C 25235AD  25301.04979167 -.01522500  00000+0 -44945-2 0  3010",
                        "2 70533  53.1502 147.5873 0000714  81.6287  35.1898 15.93417395    17"
                    ]
                },
                {
                    "noradId": "70532",
                    "tle": [
                        "1 70532C 25235AC  25301.04770833 -.01503900  00000+0 -44503-2 0  3011",
                        "2 70532  53.1506 147.6029 0000627  86.5233  16.1250 15.93352506    15"
                    ]
                },
                {
                    "noradId": "70531",
                    "tle": [
                        "1 70531C 25235AB  25301.04284722 -.01493400  00000+0 -44273-2 0  3014",
                        "2 70531  53.1507 147.6317 0000685  70.5868   2.2365 15.93306768    18"
                    ]
                },
                {
                    "noradId": "70529",
                    "tle": [
                        "1 70529C 25235Z   25301.04284722 -.01480000  00000+0 -44007-2 0  3018",
                        "2 70529  53.1512 147.6380 0000673  85.0868 345.0756 15.93234653    14"
                    ]
                },
                {
                    "noradId": "70530",
                    "tle": [
                        "1 70530C 25235AA  25301.06159722 -.01472400  00000+0 -44024-2 0  3017",
                        "2 70530  53.1508 147.5455 0000725  83.0981  92.5554 15.93120073    15"
                    ]
                },
                {
                    "noradId": "70528",
                    "tle": [
                        "1 70528C 25235Y   25301.05187500 -.01453200  00000+0 -43740-2 0  3019",
                        "2 70528  53.1508 147.6095 0000664  73.1302  40.0567 15.92971297    15"
                    ]
                },
                {
                    "noradId": "70527",
                    "tle": [
                        "1 70527C 25235X   25301.04215278 -.01466100  00000+0 -43826-2 0  3019",
                        "2 70527  53.1509 147.6497 0000562  77.5688 344.3268 15.93118633    19"
                    ]
                },
                {
                    "noradId": "70526",
                    "tle": [
                        "1 70526C 25235W   25301.05048611 -.01459300  00000+0 -43796-2 0  3014",
                        "2 70526  53.1506 147.6114 0000701  70.4435  37.0486 15.93034519    16"
                    ]
                },
                {
                    "noradId": "70525",
                    "tle": [
                        "1 70525C 25235V   25301.04562500 -.01440200  00000+0 -43539-2 0  3014",
                        "2 70525  53.1513 147.6513 0000755  73.2648 359.6497 15.92873832    15"
                    ]
                },
                {
                    "noradId": "70524",
                    "tle": [
                        "1 70524C 25235U   25301.06923611 -.01435600  00000+0 -43655-2 0  3016",
                        "2 70524  53.1511 147.5341 0000543  84.7886 121.7647 15.92755149    11"
                    ]
                },
                {
                    "noradId": "70523",
                    "tle": [
                        "1 70523C 25235T   25301.05048611 -.01444800  00000+0 -43595-2 0  3017",
                        "2 70523  53.1509 147.6210 0000504  77.5900  25.4858 15.92915964    14"
                    ]
                },
                {
                    "noradId": "70522",
                    "tle": [
                        "1 70522C 25235S   25301.04770833 -.01425200  00000+0 -43326-2 0  3018",
                        "2 70522  53.1510 147.6499 0000666  68.2524  11.9721 15.92750133    16"
                    ]
                },
                {
                    "noradId": "70521",
                    "tle": [
                        "1 70521C 25235R   25301.05326389 -.01418100  00000+0 -43262-2 0  3011",
                        "2 70521  53.1511 147.6270 0000741  76.5894  33.0527 15.92674571    19"
                    ]
                },
                {
                    "noradId": "70520",
                    "tle": [
                        "1 70520C 25235Q   25301.04909722 -.01413000  00000+0 -43178-2 0  3017",
                        "2 70520  53.1512 147.6524 0000642  76.3181   7.6823 15.92636781    15"
                    ]
                },
                {
                    "noradId": "70519",
                    "tle": [
                        "1 70519C 25235P   25301.04354167 -.01402300  00000+0 -43024-2 0  3013",
                        "2 70519  53.1514 147.6889 0000623  62.5096 345.6241 15.92548834    10"
                    ]
                },
                {
                    "noradId": "70518",
                    "tle": [
                        "1 70518C 25235N   25301.04562500 -.01410600  00000+0 -43187-2 0  3016",
                        "2 70518  53.1514 147.6744 0000741  71.4941 350.5665 15.92597681    17"
                    ]
                },
                {
                    "noradId": "70517",
                    "tle": [
                        "1 70517C 25235M   25301.04354167 -.01394400  00000+0 -42891-2 0  3013",
                        "2 70517  53.1514 147.6944 0000524  65.2807 340.2943 15.92490263    12"
                    ]
                },
                {
                    "noradId": "70516",
                    "tle": [
                        "1 70516C 25235L   25301.04354167 -.01386900  00000+0 -42772-2 0  3016",
                        "2 70516  53.1513 147.6994 0000445  73.3257 329.7810 15.92432454    19"
                    ]
                },
                {
                    "noradId": "70515",
                    "tle": [
                        "1 70515C 25235K   25301.04562500 -.01383900  00000+0 -42788-2 0  3011",
                        "2 70515  53.1515 147.6924 0000596  71.5295 341.7160 15.92379688    13"
                    ]
                },
                {
                    "noradId": "70514",
                    "tle": [
                        "1 70514C 25235J   25301.04770833 -.01378900  00000+0 -42748-2 0  3010",
                        "2 70514  53.1516 147.6865 0000669  72.5761 350.5455 15.92322209    19"
                    ]
                },
                {
                    "noradId": "70513",
                    "tle": [
                        "1 70513C 25235H   25301.04562500 -.01366800  00000+0 -42473-2 0  3010",
                        "2 70513  53.1515 147.7022 0000567  75.8676 332.6070 15.92263523    18"
                    ]
                },
                {
                    "noradId": "70512",
                    "tle": [
                        "1 70512C 25235G   25301.04631944 -.01360100  00000+0 -42364-2 0  3014",
                        "2 70512  53.1512 147.7026 0000531  69.3038 341.2314 15.92211680    13"
                    ]
                },
                {
                    "noradId": "70511",
                    "tle": [
                        "1 70511C 25235F   25301.04562500 -.01354200  00000+0 -42277-2 0  3011",
                        "2 70511  53.1514 147.7114 0000727  68.1888 336.0839 15.92160205    19"
                    ]
                },
                {
                    "noradId": "70510",
                    "tle": [
                        "1 70510C 25235E   25301.05118056 -.01348500  00000+0 -42233-2 0  3012",
                        "2 70510  53.1514 147.6875 0000640  72.7766   1.1041 15.92093067    17"
                    ]
                },
                {
                    "noradId": "70509",
                    "tle": [
                        "1 70509C 25235D   25301.04562500 -.01338000  00000+0 -41965-2 0  3011",
                        "2 70509  53.1517 147.7208 0000653  62.0511 337.7859 15.92052943    16"
                    ]
                },
                {
                    "noradId": "70508",
                    "tle": [
                        "1 70508C 25235C   25301.04493056 -.01333800  00000+0 -41930-2 0  3014",
                        "2 70508  53.1516 147.7284 0000474  78.1340 315.5941 15.92004821    15"
                    ]
                },
                {
                    "noradId": "70507",
                    "tle": [
                        "1 70507C 25235B   25301.04423611 -.01323600  00000+0 -41706-2 0  3011",
                        "2 70507  53.1518 147.7379 0000599  65.8745 321.2582 15.91948914    15"
                    ]
                },
                {
                    "noradId": "70506",
                    "tle": [
                        "1 70506C 25235A   25301.04770833 -.01316300  00000+0 -41591-2 0  3012",
                        "2 70506  53.1517 147.7249 0000515  69.8445 334.8885 15.91885978    14"
                    ]
                }
            ]
        }
    ],
    "config": {}
}